MALLIGYONG-1            
1 58400U 23179A   24130.52781790  .00008247  00000+0  35988-3 0  9994
2 58400  97.4086  17.9643 0010500  47.8028 312.4098 15.22350337 25845
